SENTINEL-6              
1 46984U 20086A   24039.54751054 -.00000041  00000+0  88641-4 0  9992
2 46984  66.0413 120.5348 0007805 270.2562  89.7559 12.80930513150225
